{"type": "FeatureCollection", "features": [ {"type": "Feature", "properties": {"norad_id": 34635, "name": "COSMOS 2251 DEB", "group": "cosmos-2251-debris", "lat": -69.04540441984634, "lon": 15.361067190628768, "alt_km": 691.0320563566038, "timestamp": "2025-12-16T08:59:43.556455+00:00", "meta": {"OBJECT_NAME": "COSMOS 2251 DEB", "OBJECT_ID": "1993-036XG", "EPOCH": "2025-12-15T22:41:24.204192", "MEAN_MOTION": 14.68313353, "ECCENTRICITY": 0.00282821, "INCLINATION": 74.0463, "RA_OF_ASC_NODE": 64.5203, "ARG_OF_PERICENTER": 132.1933, "MEAN_ANOMALY": 42.6522, "EPHEMERIS_TYPE": 0, "CLASSIFICATION_TYPE": "U", "NORAD_CAT_ID": 34635, "ELEMENT_SET_NO": 999, "REV_AT_EPOCH": 73266, "BSTAR": 0.00076389456, "MEAN_MOTION_DOT": 4.407e-05, "MEAN_MOTION_DDOT": 0}, "tle": {"line1": "1 34635U 93036XG  25349.94541903  .00004407  00000+0  76389-3 0  9990", "line2": "2 34635  74.0463  64.5203 0028282 132.1933  42.6522 14.68313353732663"}}, "geometry": {"type": "Point", "coordinates": [15.361067190628768, -69.04540441984634]}}, {"type": "Feature", "properties": {"norad_id": 34637, "name": "COSMOS 2251 DEB", "group": "cosmos-2251-debris", "lat": 6.152179924751488, "lon": 95.99128391748975, "alt_km": 726.8727684553969, "timestamp": "2025-12-16T08:59:43.556466+00:00", "meta": {"OBJECT_NAME": "COSMOS 2251 DEB", "OBJECT_ID": "1993-036XJ", "EPOCH": "2025-12-15T08:33:28.416096", "MEAN_MOTION": 14.60124786, "ECCENTRICITY": 0.00496143, "INCLINATION": 74.0492, "RA_OF_ASC_NODE": 96.1657, "ARG_OF_PERICENTER": 165.9201, "MEAN_ANOMALY": 250.7279, "EPHEMERIS_TYPE": 0, "CLASSIFICATION_TYPE": "U", "NORAD_CAT_ID": 34637, "ELEMENT_SET_NO": 999, "REV_AT_EPOCH": 88565, "BSTAR": 0.0006484021, "MEAN_MOTION_DOT": 3.145e-05, "MEAN_MOTION_DDOT": 0}, "tle": {"line1": "1 34637U 93036XJ  25349.35657889  .00003145  00000+0  64840-3 0  9995", "line2": "2 34637  74.0492  96.1657 0049614 165.9201 250.7279 14.60124786885656"}}, "geometry": {"type": "Point", "coordinates": [95.99128391748975, 6.152179924751488]}}, {"type": "Feature", "properties": {"norad_id": 34641, "name": "COSMOS 2251 DEB", "group": "cosmos-2251-debris", "lat": -65.73480133480449, "lon": -65.24896499405858, "alt_km": 727.4557468551066, "timestamp": "2025-12-16T08:59:43.556476+00:00", "meta": {"OBJECT_NAME": "COSMOS 2251 DEB", "OBJECT_ID": "1993-036XN", "EPOCH": "2025-12-15T07:17:46.997088", "MEAN_MOTION": 14.52026523, "ECCENTRICITY": 0.00185102, "INCLINATION": 73.8398, "RA_OF_ASC_NODE": 76.7578, "ARG_OF_PERICENTER": 350.8405, "MEAN_ANOMALY": 65.8757, "EPHEMERIS_TYPE": 0, "CLASSIFICATION_TYPE": "U", "NORAD_CAT_ID": 34641, "ELEMENT_SET_NO": 999, "REV_AT_EPOCH": 88293, "BSTAR": 0.00068033597, "MEAN_MOTION_DOT": 2.727e-05, "MEAN_MOTION_DDOT": 0}, "tle": {"line1": "1 34641U 93036XN  25349.30401617  .00002727  00000+0  68034-3 0  9995", "line2": "2 34641  73.8398  76.7578 0018510 350.8405  65.8757 14.52026523882936"}}, "geometry": {"type": "Point", "coordinates": [-65.24896499405858, -65.73480133480449]}}, {"type": "Feature", "properties": {"norad_id": 34642, "name": "COSMOS 2251 DEB", "group": "cosmos-2251-debris", "lat": 1.1336199168257797, "lon": -26.169302069737448, "alt_km": 1031.011358284396, "timestamp": "2025-12-16T08:59:43.556487+00:00", "meta": {"OBJECT_NAME": "COSMOS 2251 DEB", "OBJECT_ID": "1993-036XP", "EPOCH": "2025-12-15T09:40:18.493248", "MEAN_MOTION": 13.98981771, "ECCENTRICITY": 0.0206936, "INCLINATION": 74.0048, "RA_OF_ASC_NODE": 335.1881, "ARG_OF_PERICENTER": 154.4374, "MEAN_ANOMALY": 355.5045, "EPHEMERIS_TYPE": 0, "CLASSIFICATION_TYPE": "U", "NORAD_CAT_ID": 34642, "ELEMENT_SET_NO": 999, "REV_AT_EPOCH": 85330, "BSTAR": 0.00074513778, "MEAN_MOTION_DOT": 1.27e-05, "MEAN_MOTION_DDOT": 0}, "tle": {"line1": "1 34642U 93036XP  25349.40299182  .00001270  00000+0  74514-3 0  9991", "line2": "2 34642  74.0048 335.1881 0206936 154.4374 355.5045 13.98981771853307"}}, "geometry": {"type": "Point", "coordinates": [-26.169302069737448, 1.1336199168257797]}}, {"type": "Feature", "properties": {"norad_id": 34671, "name": "COSMOS 2251 DEB", "group": "cosmos-2251-debris", "lat": -10.903210570668962, "lon": -49.55900813988251, "alt_km": 667.0271466091035, "timestamp": "2025-12-16T08:59:43.556497+00:00", "meta": {"OBJECT_NAME": "COSMOS 2251 DEB", "OBJECT_ID": "1993-036XR", "EPOCH": "2025-12-15T19:22:13.082304", "MEAN_MOTION": 14.66993297, "ECCENTRICITY": 0.00112124, "INCLINATION": 74.026, "RA_OF_ASC_NODE": 128.3736, "ARG_OF_PERICENTER": 208.8056, "MEAN_ANOMALY": 225.4971, "EPHEMERIS_TYPE": 0, "CLASSIFICATION_TYPE": "U", "NORAD_CAT_ID": 34671, "ELEMENT_SET_NO": 999, "REV_AT_EPOCH": 88342, "BSTAR": 0.0010754402, "MEAN_MOTION_DOT": 6.006e-05, "MEAN_MOTION_DDOT": 0}, "tle": {"line1": "1 34671U 93036XR  25349.80709586  .00006006  00000+0  10754-2 0  9998", "line2": "2 34671  74.0260 128.3736 0011212 208.8056 225.4971 14.66993297883429"}}, "geometry": {"type": "Point", "coordinates": [-49.55900813988251, -10.903210570668962]}}, {"type": "Feature", "properties": {"norad_id": 34672, "name": "COSMOS 2251 DEB", "group": "cosmos-2251-debris", "lat": -27.963394465602157, "lon": -69.82901833489832, "alt_km": 762.648786368768, "timestamp": "2025-12-16T08:59:43.556507+00:00", "meta": {"OBJECT_NAME": "COSMOS 2251 DEB", "OBJECT_ID": "1993-036XS", "EPOCH": "2025-12-11T16:16:44.249952", "MEAN_MOTION": 14.36406242, "ECCENTRICITY": 0.00236356, "INCLINATION": 74.0334, "RA_OF_ASC_NODE": 307.539, "ARG_OF_PERICENTER": 19.6523, "MEAN_ANOMALY": 155.1005, "EPHEMERIS_TYPE": 0, "CLASSIFICATION_TYPE": "U", "NORAD_CAT_ID": 34672, "ELEMENT_SET_NO": 999, "REV_AT_EPOCH": 65162, "BSTAR": 0.00043649208, "MEAN_MOTION_DOT": 1.257e-05, "MEAN_MOTION_DDOT": 0}, "tle": {"line1": "1 34672U 93036XS  25345.67828993  .00001257  00000+0  43649-3 0  9997", "line2": "2 34672  74.0334 307.5390 0023635  19.6523 155.1005 14.36406242651626"}}, "geometry": {"type": "Point", "coordinates": [-69.82901833489832, -27.963394465602157]}}, {"type": "Feature", "properties": {"norad_id": 34678, "name": "COSMOS 2251 DEB", "group": "cosmos-2251-debris", "lat": 65.44934562800661, "lon": 37.882841640300704, "alt_km": 768.7304641831124, "timestamp": "2025-12-16T08:59:43.556518+00:00", "meta": {"OBJECT_NAME": "COSMOS 2251 DEB", "OBJECT_ID": "1993-036XY", "EPOCH": "2025-12-15T11:32:24.073152", "MEAN_MOTION": 14.30065481, "ECCENTRICITY": 0.00244829, "INCLINATION": 74.0377, "RA_OF_ASC_NODE": 0.7093, "ARG_OF_PERICENTER": 48.9652, "MEAN_ANOMALY": 101.5044, "EPHEMERIS_TYPE": 0, "CLASSIFICATION_TYPE": "U", "NORAD_CAT_ID": 34678, "ELEMENT_SET_NO": 999, "REV_AT_EPOCH": 87418, "BSTAR": 3.6311485e-05, "MEAN_MOTION_DOT": 6.8e-07, "MEAN_MOTION_DDOT": 0}, "tle": {"line1": "1 34678U 93036XY  25349.48083418  .00000068  00000+0  36311-4 0  9999", "line2": "2 34678  74.0377   0.7093 0024482  48.9652 101.5044 14.30065481874186"}}, "geometry": {"type": "Point", "coordinates": [37.882841640300704, 65.44934562800661]}}, {"type": "Feature", "properties": {"norad_id": 34680, "name": "COSMOS 2251 DEB", "group": "cosmos-2251-debris", "lat": 31.357312476244772, "lon": 132.95891696531075, "alt_km": 693.5879734252694, "timestamp": "2025-12-16T08:59:43.556528+00:00", "meta": {"OBJECT_NAME": "COSMOS 2251 DEB", "OBJECT_ID": "1993-036YA", "EPOCH": "2025-12-14T19:44:01.735584", "MEAN_MOTION": 14.60652791, "ECCENTRICITY": 0.00066661, "INCLINATION": 74.0426, "RA_OF_ASC_NODE": 125.8806, "ARG_OF_PERICENTER": 224.2786, "MEAN_ANOMALY": 287.945, "EPHEMERIS_TYPE": 0, "CLASSIFICATION_TYPE": "U", "NORAD_CAT_ID": 34680, "ELEMENT_SET_NO": 999, "REV_AT_EPOCH": 88358, "BSTAR": 0.001065471, "MEAN_MOTION_DOT": 5.163e-05, "MEAN_MOTION_DDOT": 0}, "tle": {"line1": "1 34680U 93036YA  25348.82224231  .00005163  00000+0  10655-2 0  9991", "line2": "2 34680  74.0426 125.8806 0006666 224.2786 287.9450 14.60652791883589"}}, "geometry": {"type": "Point", "coordinates": [132.95891696531075, 31.357312476244772]}}, {"type": "Feature", "properties": {"norad_id": 34681, "name": "COSMOS 2251 DEB", "group": "cosmos-2251-debris", "lat": -16.30733960885685, "lon": 108.00607365603229, "alt_km": 637.686583422962, "timestamp": "2025-12-16T08:59:43.556538+00:00", "meta": {"OBJECT_NAME": "COSMOS 2251 DEB", "OBJECT_ID": "1993-036YB", "EPOCH": "2025-12-15T22:42:32.609664", "MEAN_MOTION": 14.83296882, "ECCENTRICITY": 0.00256273, "INCLINATION": 74.0627, "RA_OF_ASC_NODE": 284.0574, "ARG_OF_PERICENTER": 340.5285, "MEAN_ANOMALY": 88.8087, "EPHEMERIS_TYPE": 0, "CLASSIFICATION_TYPE": "U", "NORAD_CAT_ID": 34681, "ELEMENT_SET_NO": 999, "REV_AT_EPOCH": 89318, "BSTAR": 0.001012184, "MEAN_MOTION_DOT": 8.308e-05, "MEAN_MOTION_DDOT": 0}, "tle": {"line1": "1 34681U 93036YB  25349.94621076  .00008308  00000+0  10122-2 0  9997", "line2": "2 34681  74.0627 284.0574 0025627 340.5285  88.8087 14.83296882893188"}}, "geometry": {"type": "Point", "coordinates": [108.00607365603229, -16.30733960885685]}}, {"type": "Feature", "properties": {"norad_id": 34682, "name": "COSMOS 2251 DEB", "group": "cosmos-2251-debris", "lat": -7.081330721261181, "lon": 74.02853511697101, "alt_km": 710.629459120265, "timestamp": "2025-12-16T08:59:43.556548+00:00", "meta": {"OBJECT_NAME": "COSMOS 2251 DEB", "OBJECT_ID": "1993-036YC", "EPOCH": "2025-12-15T00:54:50.214816", "MEAN_MOTION": 14.58915163, "ECCENTRICITY": 0.00182372, "INCLINATION": 74.0399, "RA_OF_ASC_NODE": 78.6105, "ARG_OF_PERICENTER": 211.429, "MEAN_ANOMALY": 323.4422, "EPHEMERIS_TYPE": 0, "CLASSIFICATION_TYPE": "U", "NORAD_CAT_ID": 34682, "ELEMENT_SET_NO": 999, "REV_AT_EPOCH": 88719, "BSTAR": 0.00053862217, "MEAN_MOTION_DOT": 2.501e-05, "MEAN_MOTION_DDOT": 0}, "tle": {"line1": "1 34682U 93036YC  25349.03808119  .00002501  00000+0  53862-3 0  9991", "line2": "2 34682  74.0399  78.6105 0018237 211.4290 323.4422 14.58915163887190"}}, "geometry": {"type": "Point", "coordinates": [74.02853511697101, -7.081330721261181]}}]}